[{"OBJECT_NAME":"SKYKRAFT-4D","OBJECT_ID":"2025-154K","EPOCH":"2026-03-09T18:12:41.751648","MEAN_MOTION":14.94999025,"ECCENTRICITY":0.00041317,"INCLINATION":97.6775,"RA_OF_ASC_NODE":134.9839,"ARG_OF_PERICENTER":213.6612,"MEAN_ANOMALY":146.4347,"EPHEMERIS_TYPE":0,"CLASSIFICATION_TYPE":"U","NORAD_CAT_ID":64898,"ELEMENT_SET_NO":999,"REV_AT_EPOCH":3243,"BSTAR":0.00061950439,"MEAN_MOTION_DOT":6.721e-5,"MEAN_MOTION_DDOT":0},{"OBJECT_NAME":"SICH-1","OBJECT_ID":"1995-046A","EPOCH":"2026-03-09T16:32:37.076064","MEAN_MOTION":14.94365961,"ECCENTRICITY":0.00171667,"INCLINATION":82.5243,"RA_OF_ASC_NODE":136.8069,"ARG_OF_PERICENTER":299.5667,"MEAN_ANOMALY":60.3842,"EPHEMERIS_TYPE":0,"CLASSIFICATION_TYPE":"U","NORAD_CAT_ID":23657,"ELEMENT_SET_NO":999,"REV_AT_EPOCH":65112,"BSTAR":0.0001874143,"MEAN_MOTION_DOT":2.046e-5,"MEAN_MOTION_DDOT":0}]
